GLOBALSTAR M019         
1 25677U 99019B   24313.44191333 -.00000055  00000+0  36212-3 0  9993
2 25677  51.9897 329.2688 0000868 228.7099 279.0198 12.13869565158337
GLOBALSTAR M044         
1 25678U 99019C   24313.90789003 -.00000074  00000+0  12827-3 0  9999
2 25678  51.9967 251.7754 0006777 342.8620  88.1690 11.90245617145097
GLOBALSTAR M025         
1 25770U 99031A   24313.40634111 -.00000027  00000+0  12409-2 0  9993
2 25770  51.9829 310.7268 0001424 124.8047  24.7984 11.22556094456915
GLOBALSTAR M049         
1 25771U 99031B   24313.77877088  .00000031  00000+0  33515-2 0  9991
2 25771  51.9899 333.5503 0003228   9.6098 350.4759 11.12113836 92904
GLOBALSTAR M047         
1 25772U 99031C   24313.82147203 -.00000039  00000+0  84444-3 0  9994
2 25772  51.9866 351.4764 0016261 243.9167 115.9965 11.31924905446159
GLOBALSTAR M052         
1 25773U 99031D   24313.69046235 -.00000073  00000+0 -25243-3 0  9994
2 25773  51.9854  85.5216 0003210 150.8058 222.1693 11.15055595453912
